"postal","name","lat","lng"
1000,"Brussel",50.8427501,4.3515499
1020,"Brussel",50.8842180,4.3580002
1030,"Schaarbeek",50.8674400,4.3772700
1040,"Etterbeek",50.8325900,4.3889900
1050,"Elsene",50.8270563,4.3723080
1060,"Sint-Gillis",50.8301436,4.3402184
1070,"Anderlecht",50.8365808,4.3081870
1080,"Sint-Jans-Molenbeek",50.8522009,4.3303277
1081,"Koekelberg",50.8633900,4.3303000
1082,"Sint-Agatha-Berchem",50.8666670,4.3000000
1083,"Ganshoren",50.8711300,4.3025300
1090,"Jette",50.8808700,4.3227800
1120,"Brussel",50.8936568,4.3845296
1130,"Brussel",50.8927187,4.4094535
1140,"Evere",50.8738500,4.4009500
1150,"Sint-Pieters-Woluwe",50.8299809,4.4335038
1160,"Oudergem",50.8164064,4.4265181
1170,"Watermaal-Bosvoorde",50.8000000,4.4166670
1180,"Ukkel",50.8024100,4.3406700
1190,"Vorst",50.8174500,4.3267500
1200,"Sint-Lambrechts-Woluwe",50.8489094,4.4320883
1210,"Sint-Joost-Ten-Node",50.8537715,4.3704657
1300,"Waver",50.7158951,4.6128257
1301,"Waver",50.7198592,4.5695740
1310,"Terhulpen",50.7309955,4.4856707
1315,"Incourt",50.6918800,4.7966000
1320,"Bevekom",50.7805100,4.7740100
1325,"Chaumont-Gistoux",50.6768700,4.7194300
1330,"Rixensart",50.7109736,4.5306325
1331,"Rixensart",50.7346415,4.5461847
1332,"Rixensart",50.7227540,4.4950562
1340,"Ottignies-Louvain-La-Neuve",50.6672105,4.5859684
1341,"Ottignies-Louvain-La-Neuve",50.6615232,4.5319998
1342,"Ottignies-Louvain-La-Neuve",50.6812199,4.5601556
1348,"Ottignies-Louvain-La-Neuve",50.6738567,4.6151693
1350,"Orp-Jauche",50.6829800,4.9547000
1357,"Hélécine",50.7500000,4.9833330
1360,"Perwijs",50.6239500,4.8150300
1367,"Ramillies",50.6367900,4.9145100
1370,"Geldenaken",50.7233600,4.8711500
1380,"Lasne",50.6873600,4.4813500
1390,"Graven",50.7385816,4.6972809
1400,"Nijvel",50.5886574,4.3308649
1401,"Nijvel",50.6137787,4.3533583
1402,"Nijvel",50.5917437,4.3871558
1404,"Nijvel",50.6041731,4.2619990
1410,"Waterloo",50.7146900,4.3991000
1420,"Eigenbrakel",50.6969022,4.3538379
1421,"Eigenbrakel",50.6560168,4.3350676
1428,"Eigenbrakel",50.6443017,4.3705251
1430,"Rebecq",50.6658280,4.1326285
1435,"Mont-Saint-Guibert",50.6347043,4.6106474
1440,"Kasteelbrakel",50.6802986,4.2689347
1450,"Chastre",50.6081300,4.6356900
1457,"Walhain",50.6165400,4.6954500
1460,"Itter",50.6326887,4.2632352
1461,"Itter",50.6497513,4.2937473
1470,"Genepiën",50.6233954,4.5102727
1471,"Genepiën",50.5977336,4.4346610
1472,"Genepiën",50.6222503,4.4043555
1473,"Genepiën",50.6311704,4.4430615
1474,"Genepiën",50.6272880,4.4766613
1476,"Genepiën",50.5804921,4.4102122
1480,"Tubeke",50.6905400,4.2026000
1490,"Court-Saint-Etienne",50.6422504,4.5680813
1495,"Villers-La-Ville",50.5791942,4.5345409
1500,"Halle",50.7324848,4.2349129
1501,"Halle",50.7379887,4.2611018
1502,"Halle",50.7010009,4.2425767
1540,"Herne",50.7233164,4.0536565
1541,"Herne",50.6997768,3.9822484
1547,"Bever",50.7168215,3.9407323
1560,"Hoeilaart",50.7674863,4.4740458
1570,"Galmaarden",50.7529396,3.9709478
1600,"Sint-Pieters-Leeuw",50.7842441,4.2427430
1601,"Sint-Pieters-Leeuw",50.7882883,4.2955941
1602,"Sint-Pieters-Leeuw",50.8054095,4.2334883
1620,"Drogenbos",50.7875500,4.3164600
1630,"Linkebeek",50.7660500,4.3455900
1640,"Sint-Genesius-Rode",50.7459400,4.3575300
1650,"Beersel",50.7686913,4.3120069
1651,"Beersel",50.7725332,4.2783289
1652,"Beersel",50.7473028,4.3274016
1653,"Beersel",50.7302243,4.2967570
1654,"Beersel",50.7478294,4.2761035
1670,"Pepingen",50.7360287,4.1360863
1671,"Pepingen",50.7812236,4.1737326
1673,"Pepingen",50.7353399,4.1796177
1674,"Pepingen",50.7404048,4.1560806
1700,"Dilbeek",50.8464512,4.2620632
1701,"Dilbeek",50.8340174,4.2346965
1702,"Dilbeek",50.8745835,4.2658227
1703,"Dilbeek",50.8378402,4.2009828
1730,"Asse",50.9054755,4.2048959
1731,"Asse",50.8869790,4.2833417
1740,"Ternat",50.8698353,4.1808317
1741,"Ternat",50.8495390,4.1653390
1742,"Ternat",50.8740836,4.1347029
1745,"Opwijk",50.9715998,4.1869110
1750,"Lennik",50.8086929,4.1614340
1755,"Gooik",50.7952811,4.1180489
1760,"Roosdaal",50.8314294,4.0879776
1761,"Roosdaal",50.8512275,4.1291670
1770,"Liedekerke",50.8689100,4.0872900
1780,"Wemmel",50.9103200,4.3009600
1785,"Merchtem",50.9584200,4.2324400
1790,"Affligem",50.9084000,4.1128100
1800,"Vilvoorde",50.9272700,4.4257500
1804,"Zemst",50.9480716,4.4291786
1820,"Steenokkerzeel",50.9079300,4.5134900
1830,"Machelen",50.9125185,4.4376749
1831,"Machelen",50.8913010,4.4468571
1840,"Londerzeel",51.0031100,4.3026000
1850,"Grimbergen",50.9356235,4.3785596
1851,"Grimbergen",50.9667658,4.3834362
1852,"Grimbergen",50.9530611,4.3638681
1853,"Grimbergen",50.9083671,4.3398332
1860,"Meise",50.9478621,4.3302827
1861,"Meise",50.9695502,4.3085432
1880,"Kapelle-Op-Den-Bos",51.0132400,4.3554100
1910,"Kampenhout",50.9338827,4.5605498
1930,"Zaventem",50.8795024,4.4826212
1931,"Zaventem",50.9078567,4.4573356
1932,"Zaventem",50.8705648,4.4435639
1933,"Zaventem",50.8573308,4.5167076
1950,"Kraainem",50.8610856,4.4592974
1970,"Wezembeek-Oppem",50.8509200,4.4874200
1980,"Zemst",50.9855350,4.4558340
1981,"Zemst",50.9936415,4.5009462
1982,"Zemst",50.9728740,4.4976053
2000,"Antwerpen",51.2198771,4.4011356
2018,"Antwerpen",51.2037695,4.4112637
2020,"Antwerpen",51.1890846,4.3836284
2030,"Antwerpen",51.2763963,4.3624604
2040,"Antwerpen",51.3418306,4.2964605
2050,"Antwerpen",51.2287575,4.3740221
2060,"Antwerpen",51.2269388,4.4276298
2070,"Zwijndrecht",51.2202012,4.3220449
2100,"Antwerpen",51.2145255,4.4731932
2110,"Wijnegem",51.2298187,4.5108981
2140,"Antwerpen",51.2138078,4.4439088
2150,"Borsbeek",51.1966684,4.4856299
2160,"Wommelgem",51.2000000,4.5166670
2170,"Antwerpen",51.2472392,4.4403455
2180,"Antwerpen",51.2817354,4.4299536
2200,"Herentals",51.1768785,4.8356480
2220,"Heist-Op-Den-Berg",51.0633847,4.7210601
2221,"Heist-Op-Den-Berg",51.0460108,4.7625115
2222,"Heist-Op-Den-Berg",51.1083726,4.7731528
2223,"Heist-Op-Den-Berg",51.0277811,4.6960515
2230,"Herselt",51.0523800,4.8806800
2235,"Hulshout",51.0647242,4.8165080
2240,"Zandhoven",51.2021793,4.6554212
2242,"Zandhoven",51.2264531,4.7040702
2243,"Zandhoven",51.1957105,4.6861600
2250,"Olen",51.1440245,4.8599119
2260,"Westerlo",51.0899524,4.9143395
2270,"Herenthout",51.1394506,4.7564892
2275,"Lille",51.2420452,4.8232254
2280,"Grobbendonk",51.1832616,4.7349959
2288,"Grobbendonk",51.1624420,4.7314667
2290,"Vorselaar",51.2025247,4.7708827
2300,"Turnhout",51.3216509,4.9375577
2310,"Rijkevorsel",51.3480600,4.7605400
2320,"Hoogstraten",51.4032970,4.7468218
2321,"Hoogstraten",51.4516115,4.7229316
2322,"Hoogstraten",51.4440580,4.7794791
2323,"Hoogstraten",51.4006985,4.8105746
2328,"Hoogstraten",51.4694102,4.8031381
2330,"Merksplas",51.3581903,4.8635474
2340,"Beerse",51.3211024,4.8288945
2350,"Vosselaar",51.3030836,4.8834494
2360,"Oud-Turnhout",51.3177601,4.9828450
2370,"Arendonk",51.3220490,5.0863348
2380,"Ravels",51.3762015,5.0185568
2381,"Ravels",51.4190551,5.0004736
2382,"Ravels",51.4586402,5.0592852
2387,"Baarle-Hertog",51.4418320,4.9317360
2390,"Malle",51.2968136,4.6942633
2400,"Mol",51.1910870,5.1170647
2430,"Laakdal",51.0873823,5.0242977
2431,"Laakdal",51.0687686,4.9699406
2440,"Geel",51.1625700,4.9908400
2450,"Meerhout",51.1321900,5.0770800
2460,"Kasterlee",51.2405124,4.9674402
2470,"Retie",51.2669664,5.0842508
2480,"Dessel",51.2455742,5.1235191
2490,"Balen",51.1578305,5.2100666
2491,"Balen",51.1338157,5.1606990
2500,"Lier",51.1208918,4.5911588
2520,"Ranst",51.1890940,4.5609095
2530,"Boechout",51.1664397,4.4971700
2531,"Boechout",51.1781205,4.5339282
2540,"Hove",51.1539722,4.4711513
2547,"Lint",51.1270385,4.5003232
2550,"Kontich",51.1352235,4.4448202
2560,"Nijlen",51.1613531,4.6706015
2570,"Duffel",51.0953900,4.5052000
2580,"Putte",51.0547600,4.6286700
2590,"Berlaar",51.1180400,4.6575200
2600,"Antwerpen",51.1923982,4.4347991
2610,"Antwerpen",51.1652924,4.3893798
2620,"Hemiksem",51.1451800,4.3383400
2627,"Schelle",51.1269186,4.3388412
2630,"Aartselaar",51.1333330,4.3833330
2640,"Mortsel",51.1691158,4.4662486
2650,"Edegem",51.1559541,4.4318937
2660,"Antwerpen",51.1771171,4.3532966
2800,"Mechelen",51.0258791,4.4775365
2801,"Mechelen",51.0494135,4.4090115
2811,"Mechelen",51.0236637,4.3986574
2812,"Mechelen",51.0139320,4.5168262
2820,"Bonheiden",51.0222100,4.5480300
2830,"Willebroek",51.0598300,4.3640400
2840,"Rumst",51.0804212,4.4217895
2845,"Niel",51.1106400,4.3320700
2850,"Boom",51.0860800,4.3663300
2860,"Sint-Katelijne-Waver",51.0614235,4.5055555
2861,"Sint-Katelijne-Waver",51.0639394,4.5754857
2870,"Puurs",51.0689760,4.3050065
2880,"Bornem",51.0996057,4.2404586
2890,"Sint-Amands",51.0559500,4.2094600
2900,"Schoten",51.2497532,4.4977063
2910,"Essen",51.4677600,4.4684400
2920,"Kalmthout",51.3988520,4.4581628
2930,"Brasschaat",51.2922700,4.4941900
2940,"Stabroek",51.3347290,4.3716890
2950,"Kapellen",51.3140240,4.4323815
2960,"Brecht",51.3496533,4.6377227
2970,"Schilde",51.2407352,4.5834231
2980,"Zoersel",51.2682227,4.7125694
2990,"Wuustwezel",51.3894040,4.5912302
3000,"Leuven",50.8815197,4.6967578
3001,"Leuven",50.8612986,4.6807730
3010,"Leuven",50.8903660,4.7360777
3012,"Leuven",50.9126170,4.7019807
3018,"Leuven",50.9338612,4.6929276
3020,"Herent",50.9093295,4.6769784
3040,"Huldenberg",50.7885995,4.5880687
3050,"Oud-Heverlee",50.8282606,4.6595340
3051,"Oud-Heverlee",50.8048632,4.6484154
3052,"Oud-Heverlee",50.8247884,4.7106019
3053,"Oud-Heverlee",50.8085156,4.6970956
3054,"Oud-Heverlee",50.8261908,4.6902508
3060,"Bertem",50.8632924,4.6307637
3061,"Bertem",50.8440508,4.5898822
3070,"Kortenberg",50.8855654,4.5374772
3071,"Kortenberg",50.8968496,4.5733837
3078,"Kortenberg",50.8761164,4.5699968
3080,"Tervuren",50.8259500,4.5077500
3090,"Overijse",50.7681029,4.5336216
3110,"Rotselaar",50.9535967,4.7215113
3111,"Rotselaar",50.9515561,4.7717425
3118,"Rotselaar",50.9748563,4.7124551
3120,"Tremelo",50.9956159,4.7159551
3128,"Tremelo",51.0049803,4.7428591
3130,"Begijnendijk",51.0188000,4.7826300
3140,"Keerbergen",51.0057936,4.6320416
3150,"Haacht",50.9789400,4.6413400
3190,"Boortmeerbeek",50.9803397,4.5744373
3191,"Boortmeerbeek",50.9818048,4.5368456
3200,"Aarschot",50.9806151,4.8273810
3201,"Aarschot",51.0091297,4.8957877
3202,"Aarschot",50.9779972,4.8903385
3210,"Lubbeek",50.8813339,4.8292252
3211,"Lubbeek",50.8732792,4.8973531
3212,"Lubbeek",50.8779602,4.7844449
3220,"Holsbeek",50.9248584,4.7861502
3221,"Holsbeek",50.9489726,4.8345841
3270,"Scherpenheuvel-Zichem",50.9742707,4.9785767
3271,"Scherpenheuvel-Zichem",51.0053958,4.9841232
3272,"Scherpenheuvel-Zichem",51.0070048,4.9462512
3290,"Diest",51.0010401,5.0852169
3293,"Diest",50.9800153,5.0276994
3294,"Diest",51.0032297,5.0346516
3300,"Tienen",50.8105700,4.9362200
3320,"Hoegaarden",50.7806488,4.8685676
3321,"Hoegaarden",50.7573406,4.9275167
3350,"Linter",50.8415100,5.0366100
3360,"Bierbeek",50.8279000,4.7598100
3370,"Boutersem",50.8410900,4.8347100
3380,"Glabbeek",50.8602725,4.9583256
3381,"Glabbeek",50.8913432,4.9638352
3384,"Glabbeek",50.8697661,4.9188741
3390,"Tielt-Winge",50.9206968,4.8866603
3391,"Tielt-Winge",50.8934701,4.9135474
3400,"Landen",50.7628602,5.0421020
3401,"Landen",50.7247905,5.0794410
3404,"Landen",50.7710165,5.0941602
3440,"Zoutleeuw",50.8323100,5.1044200
3450,"Geetbets",50.8902757,5.1095641
3454,"Geetbets",50.8935133,5.1546511
3460,"Bekkevoort",50.9426234,4.9856410
3461,"Bekkevoort",50.9131330,4.9423469
3470,"Kortenaken",50.8973765,5.0663974
3471,"Kortenaken",50.8684803,5.0104490
3472,"Kortenaken",50.8897326,5.0015754
3473,"Kortenaken",50.9109915,4.9926901
3500,"Hasselt",50.9215166,5.3447405
3501,"Hasselt",50.8824915,5.3522324
3510,"Hasselt",50.9522942,5.2420255
3511,"Hasselt",50.9652666,5.3019536
3512,"Hasselt",50.9206443,5.2488451
3520,"Zonhoven",50.9870700,5.3671600
3530,"Houthalen-Helchteren",51.0312424,5.3765453
3540,"Herk-De-Stad",50.9392300,5.1671200
3545,"Halen",50.9485000,5.1111700
3550,"Heusden-Zolder",51.0384819,5.2904127
3560,"Lummen",50.9876100,5.1951100
3570,"Alken",50.8760900,5.3076700
3580,"Beringen",51.0473373,5.2214769
3581,"Beringen",51.0882973,5.2419586
3582,"Beringen",51.0712929,5.2708082
3583,"Beringen",51.0495936,5.1707265
3590,"Diepenbeek",50.9108300,5.4133600
3600,"Genk",50.9661300,5.5021000
3620,"Lanaken",50.8919602,5.6398572
3621,"Lanaken",50.9217656,5.6715779
3630,"Maasmechelen",50.9692780,5.6619185
3631,"Maasmechelen",50.9399754,5.7267526
3640,"Kinrooi",51.1455200,5.7411300
3650,"Dilsen",51.0374700,5.7221500
3660,"Opglabbeek",51.0431600,5.5841200
3665,"As",50.9997751,5.5715438
3670,"Meeuwen-Gruitrode",51.0949500,5.5478400
3680,"Maaseik",51.0983869,5.7837674
3690,"Zutendaal",50.9294322,5.5702985
3700,"Tongeren",50.7841900,5.4744900
3717,"Herstappe",50.7265300,5.4260000
3720,"Kortessem",50.8625531,5.3781216
3721,"Kortessem",50.8705543,5.4307377
3722,"Kortessem",50.8528127,5.4198107
3723,"Kortessem",50.8396742,5.3999350
3724,"Kortessem",50.8291852,5.4227110
3730,"Hoeselt",50.8497352,5.4911243
3732,"Hoeselt",50.8415239,5.4494932
3740,"Bilzen",50.8719054,5.5166463
3742,"Bilzen",50.8527715,5.5347905
3746,"Bilzen",50.8721928,5.5621743
3770,"Riemst",50.8089945,5.6012328
3790,"Voeren",50.7464187,5.8409039
3791,"Voeren",50.7335494,5.8895119
3792,"Voeren",50.7264257,5.8239190
3793,"Voeren",50.7554588,5.8684528
3798,"Voeren",50.7605269,5.7669272
3800,"Sint-Truiden",50.8019192,5.2202655
3803,"Sint-Truiden",50.8412002,5.1577164
3806,"Sint-Truiden",50.7797018,5.1337266
3830,"Wellen",50.8436052,5.3362409
3831,"Wellen",50.8291939,5.3310670
3832,"Wellen",50.8459041,5.2857336
3840,"Borgloon",50.8061300,5.3430200
3850,"Nieuwerkerken",50.8647500,5.1886900
3870,"Heers",50.7536800,5.3020900
3890,"Gingelom",50.7498800,5.1332000
3891,"Gingelom",50.7562507,5.1927448
3900,"Overpelt",51.2102694,5.4225379
3910,"Neerpelt",51.2272400,5.4317300
3920,"Lommel",51.2304193,5.3110063
3930,"Hamont-Achel",51.2500000,5.5500000
3940,"Hechtel-Eksel",51.1105222,5.3295958
3941,"Hechtel-Eksel",51.1509150,5.3630586
3945,"Ham",51.1038173,5.1777363
3950,"Bocholt",51.1729100,5.5789900
3960,"Bree",51.1409900,5.5980200
3970,"Leopoldsburg",51.1183684,5.2506950
3971,"Leopoldsburg",51.1096411,5.2331385
3980,"Tessenderlo",51.0642666,5.0881938
3990,"Peer",51.1329000,5.4536000
4000,"Luik",50.6350757,5.5628874
4020,"Luik",50.6423532,5.6279411
4030,"Luik",50.6250840,5.6085724
4031,"Luik",50.6029684,5.5819125
4032,"Luik",50.6146075,5.6216157
4040,"Herstal",50.6787306,5.6288850
4041,"Herstal",50.6835847,5.5820829
4042,"Herstal",50.6937453,5.5674433
4050,"Chaudfontaine",50.5896391,5.6427754
4051,"Chaudfontaine",50.6035965,5.6389098
4052,"Chaudfontaine",50.5587632,5.6365602
4053,"Chaudfontaine",50.5914627,5.6050202
4100,"Seraing",50.5838596,5.4996297
4101,"Seraing",50.6180236,5.4984584
4102,"Seraing",50.5944726,5.5421391
4120,"Neupré",50.5326636,5.4761468
4121,"Neupré",50.5562604,5.4712661
4122,"Neupré",50.5430051,5.5319689
4130,"Esneux",50.5350365,5.5684225
4140,"Sprimont",50.5115650,5.6460921
4141,"Sprimont",50.5236123,5.7183375
4160,"Anthisnes",50.4820511,5.5194716
4161,"Anthisnes",50.4993658,5.5138700
4162,"Anthisnes",50.4868259,5.5019785
4163,"Anthisnes",50.4939446,5.4717462
4170,"Comblain-Au-Pont",50.4740721,5.5626210
4171,"Comblain-Au-Pont",50.5021907,5.5713674
4180,"Hamoir",50.4384106,5.5492373
4181,"Hamoir",50.4269441,5.5722192
4190,"Ferrières",50.4002900,5.6056400
4210,"Burdinne",50.5841100,5.0764300
4217,"Héron",50.5526795,5.0922925
4218,"Héron",50.5304417,5.1259301
4219,"Wasseiges",50.6175400,5.0016200
4250,"Geer",50.6701762,5.1828092
4252,"Geer",50.6558104,5.1990029
4253,"Geer",50.6661936,5.1880439
4254,"Geer",50.6602949,5.1779066
4257,"Berloz",50.6987500,5.2126500
4260,"Braives",50.6282300,5.1488100
4261,"Braives",50.6220710,5.1679273
4263,"Braives",50.6391841,5.1756424
4280,"Hannuit",50.6721500,5.0777600
4287,"Lijsem",50.7128616,5.0305803
4300,"Borgworm",50.6975700,5.2555300
4317,"Faimes",50.6618300,5.2600900
4340,"Awans",50.6668610,5.4628633
4342,"Awans",50.6845723,5.4573801
4347,"Fexhe-Le-Haut-Clocher",50.6653131,5.3994872
4350,"Remicourt",50.6802000,5.3284400
4351,"Remicourt",50.6964370,5.3425216
4357,"Donceel",50.6457700,5.3213800
4360,"Oerle",50.7317500,5.3577000
4367,"Crisnée",50.7173633,5.3977032
4400,"Flémalle",50.6018700,5.4433500
4420,"Sint-Niklaas (Prov. Luik)",50.6446427,5.5212279
4430,"Ans",50.6602130,5.5265524
4431,"Ans",50.6630629,5.4997713
4432,"Ans",50.7011183,5.4869132
4450,"Juprelle",50.7096477,5.5267686
4451,"Juprelle",50.6901211,5.5490053
4452,"Juprelle",50.7308832,5.5182224
4453,"Juprelle",50.7104902,5.5441237
4458,"Juprelle",50.7175592,5.5792996
4460,"Grace-Hollogne",50.6341200,5.4756600
4470,"Saint-Georges-Sur-Meuse",50.6000700,5.3575600
4480,"Engis",50.5832252,5.4037136
4500,"Hoei",50.5186775,5.2396514
4520,"Wanze",50.5344760,5.2141011
4530,"Villers-Le-Bouillet",50.5699683,5.2662704
4537,"Verlaine",50.6063300,5.3172900
4540,"Amay",50.5482572,5.3096349
4550,"Nandrin",50.5071610,5.4198582
4557,"Tinlot",50.4777355,5.3788180
4560,"Clavier",50.4114788,5.3636242
4570,"Marchin",50.4651700,5.2420400
4577,"Modave",50.4423750,5.3007316
4590,"Ouffet",50.4381000,5.4653800
4600,"Wezet",50.7436241,5.6866789
4601,"Wezet",50.7020048,5.6881623
4602,"Wezet",50.6855173,5.6760905
4606,"Dalhem",50.6965559,5.7506082
4607,"Dalhem",50.7205105,5.7331059
4608,"Dalhem",50.7180072,5.7837597
4610,"Beyne-Heusay",50.6216144,5.6558962
4620,"Fléron",50.6179541,5.6845374
4621,"Fléron",50.6311006,5.6988945
4623,"Fléron",50.6034013,5.6830626
4624,"Fléron",50.6055605,5.6632658
4630,"Soumagne",50.6162143,5.7372708
4631,"Soumagne",50.6417979,5.7051648
4632,"Soumagne",50.6559263,5.7230825
4633,"Soumagne",50.6443802,5.7462340
4650,"Herve",50.6317827,5.8425762
4651,"Herve",50.6288454,5.7972685
4652,"Herve",50.6030928,5.7719110
4653,"Herve",50.6595214,5.7557256
4654,"Herve",50.6700471,5.8058064
4670,"Blégny",50.6792685,5.7246643
4671,"Blégny",50.6605117,5.6825667
4672,"Blégny",50.6937122,5.7076349
4680,"Oupeye",50.7127029,5.6261513
4681,"Oupeye",50.7154079,5.6777552
4682,"Oupeye",50.7369829,5.6086936
4683,"Oupeye",50.6957039,5.6546199
4684,"Oupeye",50.7372708,5.6566362
4690,"Bitsingen",50.7591324,5.6100672
4700,"Eupen",50.6133173,6.1011205
4701,"Eupen",50.6523157,6.0518359
4710,"Lontzen",50.6816693,5.9875637
4711,"Lontzen",50.6838671,6.0458144
4720,"Kelmis",50.7193507,6.0118307
4721,"Kelmis",50.7239872,6.0255506
4728,"Kelmis",50.7081998,6.0285772
4730,"Raeren",50.6770198,6.1097331
4731,"Raeren",50.7018163,6.1011403
4750,"Butgenbach",50.4266339,6.2042885
4760,"Bullingen",50.3739957,6.3042715
4761,"Bullingen",50.4559831,6.3227426
4770,"Amel",50.3542165,6.1694635
4771,"Amel",50.3575950,6.2239870
4780,"Sankt-Vith",50.2797224,6.1304560
4782,"Sankt-Vith",50.2784703,6.2509933
4783,"Sankt-Vith",50.2566039,6.1762009
4784,"Sankt-Vith",50.2836736,6.0551459
4790,"Burg-Reuland",50.1966077,6.1376625
4791,"Burg-Reuland",50.2209976,6.0669593
4800,"Verviers",50.5910337,5.8655774
4801,"Verviers",50.5949834,5.9019344
4802,"Verviers",50.5758482,5.8700528
4820,"Dison",50.6125223,5.8534370
4821,"Dison",50.6189389,5.8910045
4830,"Limburg",50.6036651,5.9357239
4831,"Limburg",50.6279490,5.9184812
4834,"Limburg",50.5951412,5.9498994
4837,"Baelen",50.6301763,5.9692046
4840,"Welkenraedt",50.6568973,5.9630388
4841,"Welkenraedt",50.6691380,5.9271962
4845,"Jalhay",50.5587986,5.9663024
4850,"Plombières",50.7193635,5.9635214
4851,"Plombières",50.7483328,6.0082797
4852,"Plombières",50.7213076,5.9254218
4860,"Pepinster",50.5682638,5.8033087
4861,"Pepinster",50.5919515,5.7863275
4870,"Trooz",50.5786521,5.6730779
4877,"Olne",50.5900502,5.7466036
4880,"Aubel",50.7021296,5.8592295
4890,"Thimister-Clermont",50.6542116,5.8640147
4900,"Spa",50.4924300,5.8643200
4910,"Theux",50.5350997,5.8141884
4920,"Aywaille",50.4731800,5.6758400
4950,"Weismes",50.4148914,6.1115604
4960,"Malmedy",50.4246396,6.0283276
4970,"Stavelot",50.3941099,5.9304135
4980,"Trois-Ponts",50.3528769,5.9177072
4983,"Trois-Ponts",50.3591924,5.7923506
4987,"Stoumont",50.4068428,5.8086149
4990,"Lierneux",50.2848031,5.7950312
5000,"Namen",50.4592670,4.8504571
5001,"Namen",50.4707116,4.8224930
5002,"Namen",50.4777441,4.8398830
5003,"Namen",50.4935323,4.8470976
5004,"Namen",50.4782959,4.8911893
5020,"Namen",50.4824156,4.7921081
5021,"Namen",50.4973145,4.9320005
5022,"Namen",50.5165140,4.9072348
5024,"Namen",50.4957312,4.9692414
5030,"Gembloux",50.5742906,4.7016542
5031,"Gembloux",50.5766743,4.7707367
5032,"Gembloux",50.5340480,4.6699982
5060,"Sambreville",50.4467340,4.6307350
5070,"Fosses-La-Ville",50.3945500,4.6961700
5080,"La Bruyère",50.5073930,4.8150906
5081,"La Bruyère",50.5496279,4.7973573
5100,"Namen",50.4198861,4.9246444
5101,"Namen",50.4556222,4.9371624
5140,"Sombreffe",50.5287100,4.5884000
5150,"Floreffe",50.4340500,4.7592200
5170,"Profondeville",50.3756621,4.8674002
5190,"Jemeppe-Sur-Sambre",50.4630907,4.6786862
5300,"Andenne",50.4911522,5.0964543
5310,"Eghezée",50.5926500,4.9036500
5330,"Assesse",50.3777222,4.9421604
5332,"Assesse",50.3507246,4.9685315
5333,"Assesse",50.3896895,5.0253340
5334,"Assesse",50.3772652,5.0730382
5336,"Assesse",50.3912880,4.9881871
5340,"Gesves",50.4024613,5.0755536
5350,"Ohey",50.4145401,5.1673861
5351,"Ohey",50.4464795,5.1481975
5352,"Ohey",50.4556588,5.1749645
5353,"Ohey",50.4515615,5.2087116
5354,"Ohey",50.4345429,5.1836073
5360,"Hamois",50.3453749,5.0922322
5361,"Hamois",50.3096564,5.1980541
5362,"Hamois",50.3339858,5.1744391
5363,"Hamois",50.3340230,5.1151291
5364,"Hamois",50.3648227,5.1207437
5370,"Havelange",50.3647074,5.2395547
5372,"Havelange",50.3547686,5.3442156
5374,"Havelange",50.3534851,5.3157560
5376,"Havelange",50.3695608,5.2467237
5377,"Somme-Leuze",50.3399215,5.3700866
5380,"Fernelmont",50.5500000,4.9833330
5500,"Dinant",50.2340362,4.9169434
5501,"Dinant",50.2896600,4.9453168
5502,"Dinant",50.2875513,4.9946536
5503,"Dinant",50.2562527,5.0015126
5504,"Dinant",50.2378154,4.9895742
5520,"Onhaye",50.2425159,4.8379125
5521,"Onhaye",50.2580031,4.7756040
5522,"Onhaye",50.2855873,4.7957727
5523,"Onhaye",50.2635397,4.8291483
5524,"Onhaye",50.2435358,4.8133387
5530,"Yvoir",50.3269678,4.8778583
5537,"Anhée",50.3106400,4.8782900
5540,"Hastière",50.2127777,4.8080740
5541,"Hastière",50.2121457,4.8301774
5542,"Hastière",50.1907537,4.8413671
5543,"Hastière",50.1702655,4.8378402
5544,"Hastière",50.1620531,4.7870724
5550,"Vresse-Sur-Semois",49.8725882,4.9326558
5555,"Bièvre",49.9414154,5.0165882
5560,"Houyet",50.1694226,4.9798922
5561,"Houyet",50.2298284,5.0154300
5562,"Houyet",50.2125898,5.0557975
5563,"Houyet",50.1619196,5.0342976
5564,"Houyet",50.1476553,5.0658160
5570,"Beauraing",50.1003926,4.9059609
5571,"Beauraing",50.1435665,4.9815000
5572,"Beauraing",50.1204534,5.0392534
5573,"Beauraing",50.1322773,5.0042404
5574,"Beauraing",50.0908324,5.0092269
5575,"Gedinne",49.9808100,4.9370700
5576,"Beauraing",50.0601637,5.0037681
5580,"Rochefort",50.1596036,5.2221665
5590,"Ciney",50.2956548,5.1008264
5600,"Philippeville",50.1958462,4.5430358
5620,"Florennes",50.2451448,4.6468567
5630,"Cerfontaine",50.1514001,4.3847036
5640,"Mettet",50.3174893,4.6464726
5641,"Mettet",50.3074423,4.7035401
5644,"Mettet",50.2886049,4.7220269
5646,"Mettet",50.2808156,4.6589329
5650,"Walcourt",50.2537328,4.4267048
5651,"Walcourt",50.2938700,4.4576376
5660,"Couvin",50.0519700,4.4945700
5670,"Viroinval",50.0833330,4.5500000
5680,"Doische",50.1362261,4.7461199
6000,"Charleroi",50.4108998,4.4446709
6001,"Charleroi",50.3824059,4.4408527
6010,"Charleroi",50.3890641,4.4696804
6020,"Charleroi",50.4182749,4.4276338
6030,"Charleroi",50.4124462,4.3993087
6031,"Charleroi",50.4185168,4.3755799
6032,"Charleroi",50.3838032,4.4040709
6040,"Charleroi",50.4446203,4.4383382
6041,"Charleroi",50.4652162,4.4415956
6042,"Charleroi",50.4315612,4.4472854
6043,"Charleroi",50.4535052,4.4768560
6044,"Charleroi",50.4386442,4.3910647
6060,"Charleroi",50.4324417,4.4858661
6061,"Charleroi",50.4096402,4.4729564
6110,"Montigny-Le-Tilleul",50.3744413,4.3779578
6111,"Montigny-Le-Tilleul",50.3951713,4.3570814
6120,"Ham-Sur-Heure-Nalinnes",50.3166670,4.3833330
6140,"Fontaine-Leveque",50.4100558,4.3249526
6141,"Fontaine-Leveque",50.4308720,4.3219947
6142,"Fontaine-Leveque",50.3870152,4.3183285
6150,"Anderlues",50.4060400,4.2839400
6180,"Courcelles",50.4577042,4.3662504
6181,"Courcelles",50.4904448,4.3219095
6182,"Courcelles",50.4450257,4.3426580
6183,"Courcelles",50.4595342,4.3171534
6200,"Chatelet",50.4061000,4.5278600
6210,"Les Bons Villers",50.5427462,4.4476802
6211,"Les Bons Villers",50.5050113,4.4850788
6220,"Fleurus",50.4771076,4.5363885
6221,"Fleurus",50.5031025,4.5343872
6222,"Fleurus",50.5298188,4.5609339
6223,"Fleurus",50.5240634,4.5302468
6224,"Fleurus",50.4805689,4.5803692
6230,"Pont-A-Celles",50.5135550,4.3581617
6238,"Pont-A-Celles",50.5068977,4.4358077
6240,"Farciennes",50.4299400,4.5415000
6250,"Aiseau-Presles",50.4100045,4.5866980
6280,"Gerpinnes",50.3373282,4.5277925
6440,"Froidchapelle",50.1500253,4.3282168
6441,"Froidchapelle",50.1998292,4.3508443
6460,"Chimay",50.0844529,4.2660214
6461,"Chimay",50.0768689,4.3318706
6462,"Chimay",50.0628279,4.3632258
6463,"Chimay",50.0723775,4.3830032
6464,"Chimay",49.9990150,4.3503062
6470,"Sivry-Rance",50.1500000,4.2166670
6500,"Beaumont",50.2190423,4.2497858
6511,"Beaumont",50.2748384,4.2766073
6530,"Thuin",50.3414098,4.2928918
6531,"Thuin",50.3174907,4.3107260
6532,"Thuin",50.3061069,4.2690998
6533,"Thuin",50.3257198,4.2592662
6534,"Thuin",50.3445085,4.3486884
6536,"Thuin",50.2935783,4.3285373
6540,"Lobbes",50.3682434,4.2662585
6542,"Lobbes",50.3391680,4.2127589
6543,"Lobbes",50.3541411,4.2134471
6560,"Erquelinnes",50.3073558,4.1113839
6567,"Merbes-Le-Chateau",50.3244185,4.1645212
6590,"Momignies",50.0310150,4.1789941
6591,"Momignies",50.0506091,4.2061955
6592,"Momignies",50.0319350,4.2246576
6593,"Momignies",49.9732455,4.2128323
6594,"Momignies",50.0109884,4.1638985
6596,"Momignies",49.9919287,4.2641629
6600,"Bastenaken",50.0005973,5.7152666
6630,"Martelange",49.8323023,5.7406711
6637,"Fauvillers",49.8515705,5.6627796
6640,"Vaux-Sur-Sure",49.9444556,5.6202645
6642,"Vaux-Sur-Sure",49.8917062,5.5414584
6660,"Houffalize",50.1419014,5.6912202
6661,"Houffalize",50.1736792,5.7793407
6662,"Houffalize",50.1086488,5.8413112
6663,"Houffalize",50.1148360,5.7170744
6666,"Houffalize",50.1761464,5.7295649
6670,"Gouvy",50.1457074,5.9245645
6671,"Gouvy",50.2274685,5.9418410
6672,"Gouvy",50.2044509,5.9874998
6673,"Gouvy",50.1686749,5.8789963
6674,"Gouvy",50.2120826,5.8376462
6680,"Sainte-Ode",50.0199719,5.5480905
6681,"Sainte-Ode",50.0438986,5.4780506
6686,"Bertogne",50.0584121,5.6056084
6687,"Bertogne",50.0908293,5.6808856
6688,"Bertogne",50.0548009,5.6798603
6690,"Vielsalm",50.2517425,5.8711513
6692,"Vielsalm",50.3026042,5.9894564
6698,"Vielsalm",50.3275799,5.9060385
6700,"Aarlen",49.6851385,5.8104802
6717,"Attert",49.7506158,5.7863474
6720,"Habay",49.7267434,5.6634857
6721,"Habay",49.7649623,5.6154640
6723,"Habay",49.7136086,5.6175878
6724,"Habay",49.7314915,5.5655561
6730,"Tintigny",49.6833105,5.5131212
6740,"Etalle",49.6694372,5.5779600
6741,"Etalle",49.6700541,5.6706218
6742,"Etalle",49.6473956,5.6629789
6743,"Etalle",49.6405262,5.5937955
6747,"Saint-Léger",49.6119564,5.6566551
6750,"Musson",49.5581782,5.7056943
6760,"Virton",49.5871911,5.5862953
6761,"Virton",49.5627592,5.5630304
6762,"Virton",49.5490336,5.5296426
6767,"Rouvroy",49.5381200,5.4918900
6769,"Meix-Devant-Virton",49.6056457,5.4780041
6780,"Messancy",49.6216258,5.8214036
6781,"Messancy",49.6096472,5.8560275
6782,"Messancy",49.6145594,5.7581624
6790,"Aubange",49.5608954,5.8088730
6791,"Aubange",49.5792831,5.8497214
6792,"Aubange",49.5788211,5.7570326
6800,"Libramont-Chevigny",49.9184200,5.3745800
6810,"Chiny",49.6989693,5.3867430
6811,"Chiny",49.7127741,5.4201396
6812,"Chiny",49.7384451,5.4189218
6813,"Chiny",49.7009054,5.4547742
6820,"Florenville",49.7270823,5.2201330
6821,"Florenville",49.7440858,5.2969666
6823,"Florenville",49.6380977,5.3751218
6824,"Florenville",49.7093680,5.2720366
6830,"Bouillon",49.7892158,5.0905007
6831,"Bouillon",49.8090285,5.1063496
6832,"Bouillon",49.8208082,5.0716756
6833,"Bouillon",49.8577720,5.0476406
6834,"Bouillon",49.8417042,5.1214901
6836,"Bouillon",49.7948320,5.1375114
6838,"Bouillon",49.7923956,5.0175742
6840,"Neufchateau",49.8417539,5.4341770
6850,"Paliseul",49.9037127,5.1345943
6851,"Paliseul",49.8701117,5.1174360
6852,"Paliseul",49.9564800,5.1393273
6853,"Paliseul",49.9296283,5.1652451
6856,"Paliseul",49.8577639,5.1643785
6860,"Léglise",49.8000180,5.5376280
6870,"Saint-Hubert",50.0260067,5.3727272
6880,"Bertrix",49.8541855,5.2535190
6887,"Herbeumont",49.7809500,5.2376000
6890,"Libin",49.9815389,5.2571502
6900,"Marche-En-Famenne",50.2282896,5.3441606
6920,"Wellin",50.0575065,5.0650474
6921,"Wellin",50.0639445,5.1528040
6922,"Wellin",50.0572330,5.1299168
6924,"Wellin",50.0564338,5.0895748
6927,"Tellin",50.0834091,5.2207915
6929,"Daverdisse",50.0203010,5.1182335
6940,"Durbuy",50.3350543,5.4345624
6941,"Durbuy",50.3942787,5.4964063
6950,"Nassogne",50.1109477,5.3664669
6951,"Nassogne",50.1441437,5.4289372
6952,"Nassogne",50.1458721,5.3918429
6953,"Nassogne",50.1347950,5.2963029
6960,"Manhay",50.2908885,5.6614499
6970,"Tenneville",50.0859055,5.4613070
6971,"Tenneville",50.1207914,5.4868123
6972,"Tenneville",50.1016368,5.5642302
6980,"La Roche-En-Ardenne",50.1845991,5.5556243
6982,"La Roche-En-Ardenne",50.2002587,5.6590863
6983,"La Roche-En-Ardenne",50.1401181,5.6219286
6984,"La Roche-En-Ardenne",50.1473227,5.5795416
6986,"La Roche-En-Ardenne",50.1719117,5.4968030
6987,"Rendeux",50.2348339,5.5081521
6990,"Hotton",50.2672800,5.4456800
6997,"Erezée",50.2917200,5.5585300
7000,"Bergen",50.4614181,3.9730745
7011,"Bergen",50.4795587,3.8959785
7012,"Bergen",50.4436812,3.8848899
7020,"Bergen",50.4824521,3.9637863
7021,"Bergen",50.4588978,4.0463096
7022,"Bergen",50.4086525,4.0023346
7024,"Bergen",50.4163978,3.9441308
7030,"Bergen",50.4391342,4.0189381
7031,"Bergen",50.4315042,4.0435520
7032,"Bergen",50.4271996,3.9896660
7033,"Bergen",50.4321532,3.9199815
7034,"Bergen",50.4910915,4.0141000
7040,"Quévy",50.3543123,3.9274387
7041,"Quévy",50.3715710,4.0276327
7050,"Jurbeke",50.5328889,3.9107946
7060,"Zinnik",50.5777389,4.0573135
7061,"Zinnik",50.5216116,4.0307604
7062,"Zinnik",50.5504316,4.0964803
7063,"Zinnik",50.5587853,4.0053315
7070,"Le Roeulx",50.5029297,4.1087311
7080,"Frameries",50.4109400,3.8955100
7090,"Sgravenbrakel",50.6093600,4.1348400
7100,"La Louvière",50.4693850,4.1892216
7110,"La Louvière",50.4765061,4.1348929
7120,"Estinnes",50.4038300,4.1040600
7130,"Binche",50.4278907,4.1185307
7131,"Binche",50.4035303,4.1487094
7133,"Binche",50.3807548,4.2067162
7134,"Binche",50.4228101,4.1884258
7140,"Morlanwelz",50.4523812,4.2297719
7141,"Morlanwelz",50.4411890,4.2527136
7160,"Chapelle-Lez-Herlaimont",50.4712400,4.2808200
7170,"Manage",50.5030300,4.2352900
7180,"Seneffe",50.5285674,4.2721491
7181,"Seneffe",50.5707346,4.2538294
7190,"Ecaussinnes",50.5606000,4.1724000
7191,"Ecaussinnes",50.5648888,4.2004115
7300,"Boussu",50.4258770,3.7969506
7301,"Boussu",50.4250826,3.8212501
7320,"Bernissart",50.4824696,3.6459245
7321,"Bernissart",50.4813246,3.6823497
7322,"Bernissart",50.4645034,3.7228223
7330,"Saint-Ghislain",50.4490864,3.8183635
7331,"Saint-Ghislain",50.4865354,3.8418542
7332,"Saint-Ghislain",50.5091597,3.7837576
7333,"Saint-Ghislain",50.4671082,3.8025278
7334,"Saint-Ghislain",50.4786057,3.7674265
7340,"Colfontaine",50.4142300,3.8459800
7350,"Hensies",50.4323543,3.6846775
7370,"Dour",50.4000125,3.7827922
7380,"Quiévrain",50.4034322,3.6904002
7382,"Quiévrain",50.3843464,3.7213401
7387,"Honnelles",50.3666280,3.6942525
7390,"Quaregnon",50.4443909,3.8645777
7500,"Doornik",50.6056059,3.3880367
7501,"Doornik",50.6028664,3.3473905
7502,"Doornik",50.5758993,3.2925544
7503,"Doornik",50.6237251,3.3437928
7504,"Doornik",50.5852060,3.3300918
7506,"Doornik",50.5745401,3.3507753
7520,"Doornik",50.6486421,3.2889282
7521,"Doornik",50.5888781,3.4130931
7522,"Doornik",50.6222615,3.3040773
7530,"Doornik",50.5912975,3.4768924
7531,"Doornik",50.6226778,3.4685791
7532,"Doornik",50.6212216,3.5172260
7533,"Doornik",50.6360198,3.5130098
7534,"Doornik",50.5994378,3.5511195
7536,"Doornik",50.5921900,3.4387783
7538,"Doornik",50.5695367,3.5107552
7540,"Doornik",50.6337413,3.4455401
7542,"Doornik",50.6658548,3.4128557
7543,"Doornik",50.6547921,3.4359178
7548,"Doornik",50.6118785,3.4278732
7600,"Péruwelz",50.5149368,3.6013594
7601,"Péruwelz",50.5288513,3.5865422
7602,"Péruwelz",50.5459113,3.6053344
7603,"Péruwelz",50.4998466,3.6091899
7604,"Péruwelz",50.5474037,3.5567339
7608,"Péruwelz",50.5118175,3.5339674
7610,"Rumes",50.5548870,3.3022239
7611,"Rumes",50.5313845,3.3085550
7618,"Rumes",50.5435221,3.3372879
7620,"Brunehaut",50.5417750,3.3978021
7621,"Brunehaut",50.5205632,3.3875738
7622,"Brunehaut",50.5196989,3.4437238
7623,"Brunehaut",50.5008205,3.3807184
7624,"Brunehaut",50.5146855,3.3490219
7640,"Antoing",50.5503239,3.4596501
7641,"Antoing",50.5566184,3.4272573
7642,"Antoing",50.5774415,3.4352037
7643,"Antoing",50.5679535,3.4770475
7700,"Moeskroen",50.7459126,3.2192720
7711,"Moeskroen",50.7314889,3.2986552
7712,"Moeskroen",50.7228271,3.2366679
7730,"Estaimpuis",50.7061529,3.2649740
7740,"Pecq",50.6993740,3.3314663
7742,"Pecq",50.6983273,3.3679529
7743,"Pecq",50.6569162,3.3629852
7750,"Mont-De-Lenclus",50.7403202,3.5052669
7760,"Celles",50.7121072,3.4574913
7780,"Komen",50.7687459,2.9997061
7781,"Komen",50.7897794,2.9672606
7782,"Komen",50.7323288,2.8733669
7783,"Komen",50.7083166,2.8930068
7784,"Komen",50.7515659,2.9359299
7800,"Aat",50.6335009,3.7882733
7801,"Aat",50.6211803,3.7581530
7802,"Aat",50.5933403,3.7460727
7803,"Aat",50.6526848,3.7570750
7804,"Aat",50.6756640,3.7693750
7810,"Aat",50.6163118,3.7999453
7811,"Aat",50.6196114,3.8211603
7812,"Aat",50.6304942,3.7203638
7822,"Aat",50.6472089,3.8454545
7823,"Aat",50.6302806,3.8861843
7830,"Opzullik",50.6488776,3.9235692
7850,"Edingen",50.6947421,4.0418582
7860,"Lessen",50.7047124,3.8348594
7861,"Lessen",50.6955654,3.7966650
7862,"Lessen",50.7170626,3.7749437
7863,"Lessen",50.7369754,3.8022765
7864,"Lessen",50.7349596,3.8636775
7866,"Lessen",50.6931487,3.8702455
7870,"Lens",50.5566281,3.9005909
7880,"Vloesberg",50.7367000,3.7385200
7890,"Elzele",50.7337608,3.6799142
7900,"Leuze-En-Hainaut",50.5971918,3.6241539
7901,"Leuze-En-Hainaut",50.6189969,3.5902699
7903,"Leuze-En-Hainaut",50.6113632,3.6688241
7904,"Leuze-En-Hainaut",50.5654346,3.6444911
7906,"Leuze-En-Hainaut",50.6047746,3.5734912
7910,"Frasnes-Lez-Anvaing",50.6986439,3.5330692
7911,"Frasnes-Lez-Anvaing",50.6749464,3.6280803
7912,"Frasnes-Lez-Anvaing",50.7178650,3.5845404
7940,"Brugelette",50.5991751,3.8545291
7941,"Brugelette",50.6101127,3.8332490
7942,"Brugelette",50.6184767,3.8507361
7943,"Brugelette",50.6092020,3.8955629
7950,"Chièvres",50.5859700,3.8060900
7951,"Chièvres",50.5849033,3.7663933
7970,"Beloeil",50.5317621,3.7256357
7971,"Beloeil",50.5294794,3.6337244
7972,"Beloeil",50.5535743,3.6918368
7973,"Beloeil",50.5011878,3.7093695
8000,"Brugge",51.2093488,3.2247013
8020,"Oostkamp",51.1545056,3.2334111
8200,"Brugge",51.1881666,3.1980587
8210,"Zedelgem",51.1423355,3.1369128
8211,"Zedelgem",51.1282033,3.0925657
8300,"Knokke-Heist",51.3467441,3.2894423
8301,"Knokke-Heist",51.3280406,3.2576367
8310,"Brugge",51.2123935,3.2689639
8340,"Damme",51.2512709,3.2814322
8370,"Blankenberge",51.3123743,3.1327685
8377,"Zuienkerke",51.2649391,3.1539331
8380,"Brugge",51.3135479,3.2124426
8400,"Oostende",51.1995620,2.8721410
8420,"De Haan",51.2500373,3.0380713
8421,"De Haan",51.2598471,3.0638644
8430,"Middelkerke",51.1798869,2.8060231
8431,"Middelkerke",51.1790017,2.8427583
8432,"Middelkerke",51.1755695,2.8761840
8433,"Middelkerke",51.1344175,2.8474254
8434,"Middelkerke",51.1519765,2.7695246
8450,"Bredene",51.2345015,2.9728359
8460,"Oudenburg",51.1836837,3.0068564
8470,"Gistel",51.1562662,2.9676432
8480,"Ichtegem",51.0928542,3.0106022
8490,"Jabbeke",51.1829867,3.0948244
8500,"Kortrijk",50.8194894,3.2577076
8501,"Kortrijk",50.8476320,3.2388691
8510,"Kortrijk",50.7686251,3.2724831
8511,"Kortrijk",50.7753313,3.2183209
8520,"Kuurne",50.8539700,3.2870000
8530,"Harelbeke",50.8455798,3.3121073
8531,"Harelbeke",50.8878092,3.2925625
8540,"Deerlijk",50.8537400,3.3533500
8550,"Zwevegem",50.8080392,3.3505258
8551,"Zwevegem",50.7908923,3.4035918
8552,"Zwevegem",50.7705085,3.3888739
8553,"Zwevegem",50.8085977,3.4210724
8554,"Zwevegem",50.7665549,3.3455713
8560,"Wevelgem",50.8089414,3.1835846
8570,"Anzegem",50.8335097,3.4789005
8572,"Anzegem",50.8128862,3.4953842
8573,"Anzegem",50.8098395,3.4672437
8580,"Avelgem",50.7790895,3.4511795
8581,"Avelgem",50.7960550,3.4931571
8582,"Avelgem",50.7587987,3.4285521
8583,"Avelgem",50.7481579,3.4066968
8587,"Spiere-Helkijn",50.7166670,3.3500000
8600,"Diksmuide",51.0333268,2.8658259
8610,"Kortemark",51.0284506,3.0441096
8620,"Nieuwpoort",51.1285059,2.7480064
8630,"Veurne",51.0731945,2.6680059
8640,"Vleteren",50.9296908,2.7327547
8647,"Lo-Reninge",50.9833330,2.7500000
8650,"Houthulst",50.9773885,2.9457764
8660,"De Panne",51.0962794,2.5905629
8670,"Koksijde",51.1053908,2.6500795
8680,"Koekelare",51.0929037,2.9795836
8690,"Alveringem",51.0122085,2.7130822
8691,"Alveringem",50.9508534,2.6585597
8700,"Tielt",51.0001993,3.3263574
8710,"Wielsbeke",50.9099543,3.3724687
8720,"Dentergem",50.9636502,3.4187357
8730,"Beernem",51.1424812,3.3409529
8740,"Pittem",50.9942681,3.2666639
8750,"Wingene",51.0586500,3.2748000
8755,"Ruiselede",51.0413098,3.3970513
8760,"Meulebeke",50.9506000,3.2863700
8770,"Ingelmunster",50.9232500,3.2628400
8780,"Oostrozebeke",50.9202012,3.3346008
8790,"Waregem",50.8869521,3.4231317
8791,"Waregem",50.8760346,3.3402514
8792,"Waregem",50.8857190,3.3659687
8793,"Waregem",50.9031014,3.3957222
8800,"Roeselare",50.9499310,3.1294450
8810,"Lichtervelde",51.0277074,3.1439095
8820,"Torhout",51.0649800,3.1015700
8830,"Hooglede",50.9785141,3.0814646
8840,"Staden",50.9745786,3.0144880
8850,"Ardooie",50.9790650,3.1988027
8851,"Ardooie",51.0052491,3.1956495
8860,"Lendelede",50.8862994,3.2381931
8870,"Izegem",50.9180785,3.2132193
8880,"Ledegem",50.8549568,3.1274573
8890,"Moorslede",50.8911459,3.0632361
8900,"Ieper",50.8492265,2.8779465
8902,"Ieper",50.8197705,2.9127007
8904,"Ieper",50.8993337,2.8540218
8906,"Ieper",50.8797174,2.8034166
8908,"Ieper",50.8479624,2.8245127
8920,"Langemark-Poelkapelle",50.9135965,2.9200050
8930,"Menen",50.7961693,3.1214422
8940,"Wervik",50.7841504,3.0448876
8950,"Heuvelland",50.7335060,2.8250977
8951,"Heuvelland",50.7551180,2.7909855
8952,"Heuvelland",50.7669715,2.8417068
8953,"Heuvelland",50.7782550,2.9083912
8954,"Heuvelland",50.7977692,2.7468142
8956,"Heuvelland",50.7853730,2.8303268
8957,"Mesen",50.7638555,2.8976699
8958,"Heuvelland",50.7838666,2.7847702
8970,"Poperinge",50.8452065,2.7211761
8972,"Poperinge",50.8884433,2.6526444
8978,"Poperinge",50.8260940,2.6467507
8980,"Zonnebeke",50.8727334,2.9874714
9000,"Gent",51.0678307,3.7290914
9030,"Gent",51.0747998,3.6740266
9031,"Gent",51.0501221,3.6273160
9032,"Gent",51.0921461,3.7043131
9040,"Gent",51.0643361,3.7566349
9041,"Gent",51.0924706,3.7759992
9042,"Gent",51.1287300,3.7871422
9050,"Gent",51.0404198,3.7689782
9051,"Gent",51.0227552,3.6671974
9052,"Gent",51.0003903,3.7139045
9060,"Zelzate",51.1987114,3.8119772
9070,"Destelbergen",51.0607271,3.7977530
9080,"Lochristi",51.0974848,3.8378336
9090,"Melle",51.0036716,3.8003144
9100,"Sint-Niklaas (Prov. Oost-Vlaanderen)",51.1559033,4.1544255
9111,"Sint-Niklaas (Prov. Oost-Vlaanderen)",51.1603405,4.0923026
9112,"Sint-Niklaas (Prov. Oost-Vlaanderen)",51.1629378,4.0172940
9120,"Beveren",51.2132612,4.2581272
9130,"Beveren",51.2810198,4.2364511
9140,"Temse",51.1295500,4.2127500
9150,"Kruibeke",51.1706378,4.3123069
9160,"Lokeren",51.1024238,3.9940517
9170,"Sint-Gillis-Waas",51.2199375,4.1242318
9180,"Moerbeke-Waas",51.1734692,3.9342837
9185,"Wachtebeke",51.1709500,3.8605500
9190,"Stekene",51.2063826,4.0408830
9200,"Dendermonde",51.0254867,4.1019931
9220,"Hamme",51.0902015,4.1402691
9230,"Wetteren",51.0028673,3.8896461
9240,"Zele",51.0700632,4.0402907
9250,"Waasmunster",51.1094708,4.0844665
9255,"Buggenhout",51.0136735,4.2010994
9260,"Wichelen",51.0048213,3.9735809
9270,"Laarne",51.0304277,3.8535642
9280,"Lebbeke",51.0005820,4.1292201
9290,"Berlare",51.0174273,4.0058218
9300,"Aalst",50.9377930,4.0409133
9308,"Aalst",50.9793214,4.0346746
9310,"Aalst",50.9505366,4.1116512
9320,"Aalst",50.9278106,4.0147958
9340,"Lede",50.9658713,3.9773269
9400,"Ninove",50.8336435,4.0188030
9401,"Ninove",50.8176311,4.0026615
9402,"Ninove",50.8223555,4.0493717
9403,"Ninove",50.8024468,4.0618509
9404,"Ninove",50.8441986,3.9438609
9406,"Ninove",50.8452183,3.9905509
9420,"Erpe-Mere",50.9166670,3.9500000
9450,"Haaltert",50.9024400,4.0056515
9451,"Haaltert",50.8852347,3.9826852
9470,"Denderleeuw",50.8841490,4.0707683
9472,"Denderleeuw",50.8750175,4.0477343
9473,"Denderleeuw",50.8988859,4.0486013
9500,"Geraardsbergen",50.7705978,3.8871336
9506,"Geraardsbergen",50.7946427,3.9461797
9520,"Sint-Lievens-Houtem",50.9206626,3.8544167
9521,"Sint-Lievens-Houtem",50.9324092,3.8785784
9550,"Herzele",50.8535314,3.8986569
9551,"Herzele",50.8929099,3.9112329
9552,"Herzele",50.9080365,3.8909074
9570,"Lierde",50.8190695,3.8381658
9571,"Lierde",50.8074376,3.8589603
9572,"Lierde",50.8016319,3.8141474
9600,"Ronse",50.7505367,3.6005095
9620,"Zottegem",50.8695474,3.8107094
9630,"Zwalm",50.8799184,3.7288705
9636,"Zwalm",50.8914349,3.6886649
9660,"Brakel",50.8027600,3.7638200
9661,"Brakel",50.7869363,3.7995092
9667,"Horebeke",50.8372000,3.6867200
9680,"Maarkedal",50.7992486,3.6442007
9681,"Maarkedal",50.7850270,3.5992870
9688,"Maarkedal",50.7927173,3.6864648
9690,"Kluisbergen",50.7784304,3.4935589
9700,"Oudenaarde",50.8469306,3.6014367
9750,"Zingem",50.9013629,3.6526704
9770,"Kruishoutem",50.9275809,3.5373587
9771,"Kruishoutem",50.8817600,3.5007791
9772,"Kruishoutem",50.8906636,3.5511916
9790,"Wortegem-Petegem",50.8500000,3.5000000
9800,"Deinze",50.9875406,3.5235857
9810,"Nazareth",50.9597659,3.5951408
9820,"Merelbeke",50.9945472,3.7455438
9830,"Sint-Martens-Latem",51.0135066,3.6287716
9831,"Sint-Martens-Latem",50.9930841,3.6137347
9840,"De Pinte",50.9917700,3.6493600
9850,"Nevele",51.0343330,3.5474482
9860,"Oosterzele",50.9467656,3.8155050
9870,"Zulte",50.9219215,3.4437734
9880,"Aalter",51.0769076,3.4323446
9881,"Aalter",51.0905235,3.5021788
9890,"Gavere",50.9283314,3.6599198
9900,"Eeklo",51.1852719,3.5638899
9910,"Knesselare",51.1389455,3.4127585
9920,"Lovendegem",51.1075935,3.6285575
9921,"Lovendegem",51.0881267,3.6399418
9930,"Zomergem",51.1148946,3.5611179
9931,"Zomergem",51.1519438,3.5471801
9932,"Zomergem",51.1322615,3.5515007
9940,"Evergem",51.1101028,3.7067231
9950,"Waarschoot",51.1515209,3.6061047
9960,"Assenede",51.2269806,3.7510157
9961,"Assenede",51.2516687,3.7098678
9968,"Assenede",51.2369900,3.6766481
9970,"Kaprijke",51.2230750,3.6186057
9971,"Kaprijke",51.1960228,3.6462946
9980,"Sint-Laureins",51.2361689,3.5329424
9981,"Sint-Laureins",51.2779475,3.5382307
9982,"Sint-Laureins",51.2555440,3.5853302
9988,"Sint-Laureins",51.2810850,3.6073664
9990,"Maldegem",51.2090820,3.4486611
9991,"Maldegem",51.1796950,3.4947081
9992,"Maldegem",51.2502880,3.4101213
